#dP2018  4  9  0  0  0.00000000      96 __u+U ITR00 FIT  IAC
## 1996  86400.00000000   900.00000000 58217 0.0000000000000
+   88   C01C02C03C04C05C06C07C08C09C10C11C12C13C14E01E02E03
+        E04E05E07E08E09E11E12E14E18E19E24E26E30G01G02G03G04
+        G05G06G07G08G09G10G11G12G13G14G15G16G17G18G19G20G21
+        G22G23G24G25G26G27G28G29G30G31G32J01J02J03R01R02R03
+        R04R05R07R08R09R10R11R13R14R15R16R17R18R19R20R21R22
+        R23R24R26  0  0  0  0  0  0  0  0  0  0  0  0  0  0
++         0  0  0  0  0  0  0  0  0  0  0  0  0  0  0  0  0
++         0  0  0  0  0  0  0  0  0  0  0  0  0  0  0  0  0
++         0  0  0  0  0  0  0  0  0  0  0  0  0  0  0  0  0
++         0  0  0  0  0  0  0  0  0  0  0  0  0  0  0  0  0
++         0  0  0  0  0  0  0  0  0  0  0  0  0  0  0  0  0
++         0  0  0  0  0  0  0  0  0  0  0  0  0  0  0  0  0
%c M  cc GPS ccc cccc cccc cccc cccc ccccc ccccc ccccc ccccc
%c cc cc ccc ccc cccc cccc cccc cccc ccccc ccccc ccccc ccccc
%f  0.0000000  0.000000000  0.00000000000  0.000000000000000
%f  0.0000000  0.000000000  0.00000000000  0.000000000000000
%i    0    0    0    0      0      0      0      0         0
%i    0    0    0    0      0      0      0      0         0
/*                                                          
/*   RSA / INFORMATION & ANALYSIS CENTER (IAC) OF MCC       
/*   ULTRA-RAPID DETERMINATION                              
/* PCV:IGS14_1992 OL/AL:FES2004  NONE     YN ORB:CoN CLK:CoN
*  2018 04 09 10 15  0.00000000
PC01 -32330.695074  27037.777602    789.083763    589.441704
PC02   4380.238986  41935.745306   -136.175719    618.230650
PC03 -14792.614457  39475.821584    968.618094 999999.999999
PC04 -39610.047335  14484.979882    548.485730     17.803719
PC05  21827.726179  36074.659311   -310.348201     65.348930
PC06 -13930.959557  20845.836035 -33663.772373    836.653035
PC07 -22354.330663  33514.512610  11730.291898    901.512140
PC08  -8186.309443  33966.914318  23837.050826    276.157559
PC09   4295.196299  26497.127580 -32293.568844   -236.891466
PC10 -11210.397941  34061.514042  22011.502069   -144.677586
PC11  -1186.000252  19958.829353  19553.810536   -461.040924
PC12 -16090.327507   3696.645206  22541.199404    410.564407
PC13   1626.080795  40953.044296  10419.475205   -281.472479
PC14 -12513.668323  15569.500593 -19450.278879    376.832601
PE01 -23090.724385  15724.063697  -9791.652617   -317.582078
PE02  23079.229689 -15745.448233   9758.082009     10.065030
PE03  25227.002799  -4963.686232  14679.315510    -19.038607
PE04  -7622.156971  15689.525111 -23908.019172    -10.924467
PE05  28105.536837   8713.340167  -3190.489935    287.930837
PE07 -14529.124467 -17267.421126  19163.529834     53.358256
PE08   7465.103598 -15623.680934  24014.543267   6607.815775
PE09  14690.691986  17012.403554 -19254.643143   6825.064426
PE11  11155.381955  27195.336550  -3368.934128   1836.775116
PE12  -2543.828493  25304.320775  15134.109661   3898.513050
PE14 -22889.663052 -11917.022924   7334.626711   6601.974015
PE18  23241.974156   -901.898048 -19664.904550   6295.429206
PE19 -26215.041222   3689.328214 -13245.013866     21.157756
PE24   3189.515847  18567.024457  22821.177858   6768.541045
PE26 -18001.613358 -13443.231667  19280.712786   6070.233667
PE30  14100.133979 -24281.098517  -9366.769326   5934.783543
PG01 -13246.336016  16220.900802  16014.954882    -39.528592
PG02  14048.835877   8346.854125 -20429.621651    149.839718
PG03 -22663.120782  12977.088659  -4701.452594     46.883266
PG04 -10392.267409 -11666.882712 -21766.926816     50.920641
PG05  23057.531576    406.545982 -13457.625514    -10.258584
PG06   7570.510057  20714.488216 -14746.287957    409.618532
PG07  -5453.870680  25615.489543  -2340.807589    210.227580
PG08 -19851.633591    420.474666  17763.375381    -97.218924
PG09  -1860.836681  16790.081898 -20525.895134    510.487456
PG10  -4804.717725 -14483.139564  21775.445067    177.542142
PG11 -12121.102837  12710.626106  19403.072671   -737.500477
PG12  24139.722169 -10432.778761  -3021.997417    340.608707
PG13  21657.931562   9841.076841  11692.062478    -95.202341
PG14 -18929.768985 -18698.369452   1904.010060    -95.987129
PG15  20266.967707  -2116.474605  17018.762588   -355.650284
PG16 -22924.545942  -2125.961958 -13762.709592     28.162279
PG17  13750.540079  20560.452044  10228.603173   -108.524234
PG18 -15058.191708   7704.492698  19982.114793     -5.393349
PG19  17956.481664  19192.776721   2728.654943   -444.954236
PG20  18332.877818 -17201.697247   8364.574604    505.341276
PG21   1220.594696 -26524.780585   1275.145002   -409.569212
PG22 -24790.445905   8853.338430   3786.613461   -351.848971
PG23 -14753.130047   7577.370381 -20546.315624   -218.086205
PG24  14257.729139 -13094.927197  17942.698771    -48.336282
PG25  14843.524657 -16674.648579 -14380.055564   -566.810490
PG26 -15273.498888  -8696.887235 -19960.109645   -188.741748
PG27 -23032.363583 -11433.702784   7101.967702    370.230566
PG28    192.065893  15401.674184  22267.199190    704.668701
PG29   5674.750455 -14200.929319 -21735.499310    469.086844
PG30    177.207852  25636.683036   6630.112128     86.550443
PG31  -8069.408067 -19437.836346 -15903.136621    129.709328
PG32 -13908.823172 -19956.778857  10791.050109   -522.227318
PJ01 -34632.895538  20178.655159  -8445.439107   -312.778719
PJ02 -24094.870400  32188.264626  -8551.611120      0.642764
PJ03 -27605.627685  21894.029524  28255.882174    -16.246330
PR01  17618.196734  -7494.723071  16867.934656     24.565097
PR02  -2961.975544 -10994.621048  22869.158843    303.955019
PR03 -19956.155391  -7690.432191  13975.158062    128.976741
PR04 -25270.697443    405.894923  -3490.307440    256.480461
PR05 -16109.832387   8138.182939 -18025.654448   -279.978201
PR07  20220.519006   7515.382063 -13549.602714    -34.696557
PR08  25340.505195   -104.520514   2963.223391     22.762526
PR09  -5330.844406  20431.394793  14274.295468     35.896325
PR10   7075.276931   8431.664268  22979.125361     22.157194
PR11  15974.698278  -8570.904822  17971.797790    -26.019085
PR13   4845.069199 -20323.914567 -14658.560584     -9.249245
PR14  -7109.273719  -8836.455777 -22842.909046     26.181087
PR15 -14668.316010   5272.645160 -20224.109004     -8.507730
PR16 -14943.700703  20464.991106  -3440.886087     89.814883
PR17 -14032.955888 -19758.430508   7930.015124    123.320664
PR18 -13662.842243  -6104.865675  20694.995151    191.248952
PR19  -5727.044021  11248.687959  22168.329165    -49.551193
PR20   6031.313774  22780.868462   9701.519052   -333.720750
PR21  14096.166049  19627.499412  -8190.211841     21.550914
PR22  12967.865511   4041.255205 -21551.233682    -33.438405
PR23   3306.189071 -14465.305521 -20754.754362    146.678165
PR24  -6912.941120 -22889.184247  -8939.186575   -164.778382
PR26   6187.135020  22588.525875  10140.741990 999999.999999
EOF
